$$SOE
2460154.500000000, A.D. 2023-Jul-29 00:00:00.0000, 3.392652090883104E+08, -3.237932586654462E+08, 7.362090620544904E+07,
2460161.500000000, A.D. 2023-Aug-05 00:00:00.0000, 3.461918291482186E+08, -3.159926279375471E+08, 7.307366730494669E+07,
2460168.500000000, A.D. 2023-Aug-12 00:00:00.0000, 3.529609873649105E+08, -3.080482741784139E+08, 7.249319319658852E+07,
2460175.500000000, A.D. 2023-Aug-19 00:00:00.0000, 3.595692718078678E+08, -2.999635214747908E+08, 7.187967972577590E+07,
2460182.500000000, A.D. 2023-Aug-26 00:00:00.0000, 3.660133455949191E+08, -2.917417850238543E+08, 7.123334170317027E+07,
2460189.500000000, A.D. 2023-Sep-02 00:00:00.0000, 3.722899498947414E+08, -2.833865692279053E+08, 7.055441288304332E+07,
2460196.500000000, A.D. 2023-Sep-09 00:00:00.0000, 3.783959068881580E+08, -2.749014657781822E+08, 6.984314590745524E+07,
2460203.500000000, A.D. 2023-Sep-16 00:00:00.0000, 3.843281228521243E+08, -2.662901517874156E+08, 6.909981219629934E+07,
2460210.500000000, A.D. 2023-Sep-23 00:00:00.0000, 3.900835917783872E+08, -2.575563876867394E+08, 6.832470176894429E+07,
2460217.500000000, A.D. 2023-Sep-30 00:00:00.0000, 3.956593991831699E+08, -2.487040136998357E+08, 6.751812312679017E+07,
2460224.500000000, A.D. 2023-Oct-07 00:00:00.0000, 4.010527237493004E+08, -2.397369454420727E+08, 6.668040336905691E+07,
2460231.500000000, A.D. 2023-Oct-14 00:00:00.0000, 4.062608378338125E+08, -2.306591719619792E+08, 6.581188817557791E+07,
2460238.500000000, A.D. 2023-Oct-21 00:00:00.0000, 4.112811100626671E+08, -2.214747546248631E+08, 6.491294149100966E+07,
2460245.500000000, A.D. 2023-Oct-28 00:00:00.0000, 4.161110085828005E+08, -2.121878245813598E+08, 6.398394522592797E+07,
2460252.500000000, A.D. 2023-Nov-04 00:00:00.0000, 4.207481037165503E+08, -2.028025795951136E+08, 6.302529902691378E+07,
2460259.500000000, A.D. 2023-Nov-11 00:00:00.0000, 4.251900701910816E+08, -1.933232808335969E+08, 6.203742005073401E+07,
2460266.500000000, A.D. 2023-Nov-18 00:00:00.0000, 4.294346891575487E+08, -1.837542496906810E+08, 6.102074271767352E+07,
2460273.500000000, A.D. 2023-Nov-25 00:00:00.0000, 4.334798500683694E+08, -1.740998646229972E+08, 5.997571843969160E+07,
2460280.500000000, A.D. 2023-Dec-02 00:00:00.0000, 4.373235524366157E+08, -1.643645580162857E+08, 5.890281532044111E+07,
2460287.500000000, A.D. 2023-Dec-09 00:00:00.0000, 4.409639075511733E+08, -1.545528131460081E+08, 5.780251781564485E+07,
2460294.500000000, A.D. 2023-Dec-16 00:00:00.0000, 4.443991404307699E+08, -1.446691612249507E+08, 5.667532632870893E+07,
2460301.500000000, A.D. 2023-Dec-23 00:00:00.0000, 4.476275923613399E+08, -1.347181778550402E+08, 5.552175676604132E+07,
2460308.500000000, A.D. 2023-Dec-30 00:00:00.0000, 4.506477226745480E+08, -1.247044778392299E+08, 5.434234026158874E+07,
2460315.500000000, A.D. 2024-Jan-06 00:00:00.0000, 4.534581079937502E+08, -1.146327107212490E+08, 5.313762304120600E+07,
2460322.500000000, A.D. 2024-Jan-13 00:00:00.0000, 4.560574421168167E+08, -1.045075588671249E+08, 5.190816598834112E+07,
2460329.500000000, A.D. 2024-Jan-20 00:00:00.0000, 4.584445377560092E+08, -9.433373500943069E+07, 5.065454405095281E+07,
2460336.500000000, A.D. 2024-Jan-27 00:00:00.0000, 4.606183281045594E+08, -8.411597860782453E+07, 4.937734572960231E+07,
2460343.500000000, A.D. 2024-Feb-03 00:00:00.0000, 4.625778678005884E+08, -7.385905198089482E+07, 4.807717260919243E+07,
2460350.500000000, A.D. 2024-Feb-10 00:00:00.0000, 4.643223335648713E+08, -6.356773650695760E+07, 4.675463888581053E+07,
2460357.500000000, A.D. 2024-Feb-17 00:00:00.0000, 4.658510246505535E+08, -5.324682889236695E+07, 4.541037087733330E+07,
2460364.500000000, A.D. 2024-Feb-24 00:00:00.0000, 4.671633631405985E+08, -4.290113749900304E+07, 4.404500651651494E+07,
2460371.500000000, A.D. 2024-Mar-02 00:00:00.0000, 4.682588941226470E+08, -3.253547876998327E+07, 4.265919482210611E+07,
2460378.500000000, A.D. 2024-Mar-09 00:00:00.0000, 4.691372858806798E+08, -2.215467382319523E+07, 4.125359533102174E+07,
2460385.500000000, A.D. 2024-Mar-16 00:00:00.0000, 4.697983304989647E+08, -1.176354502207719E+07, 3.982887747216057E+07,
2460392.500000000, A.D. 2024-Mar-23 00:00:00.0000, 4.702419447749174E+08, -1.366911420185668E+06, 3.838571998281491E+07,
2460399.500000000, A.D. 2024-Mar-30 00:00:00.0000, 4.704681692025480E+08, 9.030416888512153E+06, 3.692481057249191E+07,
2460406.500000000, A.D. 2024-Apr-06 00:00:00.0000, 4.704771652866658E+08, 1.942364213877380E+07, 3.544684553689218E+07,
2460413.500000000, A.D. 2024-Apr-13 00:00:00.0000, 4.702692147403089E+08, 2.980798081134297E+07, 3.395252906532569E+07,
2460420.500000000, A.D. 2024-Apr-20 00:00:00.0000, 4.698447196137865E+08, 4.017866676875612E+07, 3.244257254823226E+07,
2460427.500000000, A.D. 2024-Apr-27 00:00:00.0000, 4.692042018397632E+08, 5.053095504256403E+07, 3.091769397888236E+07,
2460434.500000000, A.D. 2024-May-04 00:00:00.0000, 4.683483022839643E+08, 6.086012556338094E+07, 2.937861738456332E+07,
2460441.500000000, A.D. 2024-May-11 00:00:00.0000, 4.672777795420544E+08, 7.116148672780621E+07, 2.782607225809412E+07,
2460448.500000000, A.D. 2024-May-18 00:00:00.0000, 4.659935085682339E+08, 8.143037882042542E+07, 2.626079298525212E+07,
2460455.500000000, A.D. 2024-May-25 00:00:00.0000, 4.644964791652929E+08, 9.166217728033903E+07, 2.468351826683015E+07,
2460462.500000000, A.D. 2024-Jun-01 00:00:00.0000, 4.627877944018259E+08, 1.018522957507796E+08, 2.309499052672051E+07,
2460469.500000000, A.D. 2024-Jun-08 00:00:00.0000, 4.608686692087025E+08, 1.119961888840862E+08, 2.149595528291132E+07,
2460476.500000000, A.D. 2024-Jun-15 00:00:00.0000, 4.587404295585925E+08, 1.220893554419139E+08, 1.988716049029326E+07,
2460483.500000000, A.D. 2024-Jun-22 00:00:00.0000, 4.564045112261322E+08, 1.321273428619757E+08, 1.826935604445836E+07,
2460490.500000000, A.D. 2024-Jun-29 00:00:00.0000, 4.538624560121927E+08, 1.421057514684881E+08, 1.664329349365812E+07,
2460497.500000000, A.D. 2024-Jul-06 00:00:00.0000, 4.511159080839571E+08, 1.520202358517015E+08, 1.500972551550209E+07,
2460504.500000000, A.D. 2024-Jul-13 00:00:00.0000, 4.481666123839945E+08, 1.618665062364916E+08, 1.336940521101987E+07,
2460511.500000000, A.D. 2024-Jul-20 00:00:00.0000, 4.450164131262187E+08, 1.716403309862135E+08, 1.172308549283775E+07,
2460518.500000000, A.D. 2024-Jul-27 00:00:00.0000, 4.416672517275903E+08, 1.813375392804988E+08, 1.007151855004307E+07,
2460525.500000000, A.D. 2024-Aug-03 00:00:00.0000, 4.381211644537464E+08, 1.909540235902848E+08, 8.415455334752947E+06,
2460532.500000000, A.D. 2024-Aug-10 00:00:00.0000, 4.343802799495696E+08, 2.004857419441411E+08, 6.755645055375904E+06,
2460539.500000000, A.D. 2024-Aug-17 00:00:00.0000, 4.304468167072579E+08, 2.099287200065431E+08, 5.092834674466953E+06,
2460546.500000000, A.D. 2024-Aug-24 00:00:00.0000, 4.263230805050459E+08, 2.192790529451928E+08, 3.427768407193512E+06,
2460553.500000000, A.D. 2024-Aug-31 00:00:00.0000, 4.220114619377476E+08, 2.285329070256184E+08, 1.761187205109134E+06,
2460560.500000000, A.D. 2024-Sep-07 00:00:00.0000, 4.175144344104076E+08, 2.376865210590865E+08, 9.382820225076377E+04,
2460567.500000000, A.D. 2024-Sep-14 00:00:00.0000, 4.128345526852368E+08, 2.467362086987057E+08, -1.573575802788720E+06,
2460574.500000000, A.D. 2024-Sep-21 00:00:00.0000, 4.079744499563682E+08, 2.556783619962232E+08, -3.240296608757973E+06,
2460581.500000000, A.D. 2024-Sep-28 00:00:00.0000, 4.029368329705886E+08, 2.645094529940930E+08, -4.905610836207777E+06,
2460588.500000000, A.D. 2024-Oct-05 00:00:00.0000, 3.977244788710960E+08, 2.732260333551001E+08, -6.568800450874642E+06,
2460595.500000000, A.D. 2024-Oct-12 00:00:00.0000, 3.923402334081937E+08, 2.818247350088897E+08, -8.229153309360847E+06,
2460602.500000000, A.D. 2024-Oct-19 00:00:00.0000, 3.867870087697695E+08, 2.903022715450730E+08, -9.885963588417515E+06,
2460609.500000000, A.D. 2024-Oct-26 00:00:00.0000, 3.810677810035504E+08, 2.986554395526525E+08, -1.153853216008973E+07,
2460616.500000000, A.D. 2024-Nov-02 00:00:00.0000, 3.751855872927970E+08, 3.068811197586811E+08, -1.318616694821115E+07,
2460623.500000000, A.D. 2024-Nov-09 00:00:00.0000, 3.691435231860705E+08, 3.149762779884825E+08, -1.482818327317725E+07,
2460630.500000000, A.D. 2024-Nov-16 00:00:00.0000, 3.629447398108383E+08, 3.229379659498389E+08, -1.646390418712023E+07,
2460637.500000000, A.D. 2024-Nov-23 00:00:00.0000, 3.565924411217919E+08, 3.307633217939873E+08, -1.809266080767016E+07,
2460644.500000000, A.D. 2024-Nov-30 00:00:00.0000, 3.500898813965297E+08, 3.384495704140331E+08, -1.971379267278530E+07,
2460651.500000000, A.D. 2024-Dec-07 00:00:00.0000, 3.434403634030433E+08, 3.459940239045322E+08, -2.132664812080175E+07,
2460658.500000000, A.D. 2024-Dec-14 00:00:00.0000, 3.366472365548319E+08, 3.533940834078565E+08, -2.293058453262068E+07,
2460665.500000000, A.D. 2024-Dec-21 00:00:00.0000, 3.297138927375798E+08, 3.606472411081585E+08, -2.452496832458384E+07,
2460672.500000000, A.D. 2024-Dec-28 00:00:00.0000, 3.226437617837377E+08, 3.677510794093104E+08, -2.610917511536874E+07,
2460679.500000000, A.D. 2025-Jan-04 00:00:00.0000, 3.154403091969703E+08, 3.747032696747938E+08, -2.768259011113130E+07,
2460686.500000000, A.D. 2025-Jan-11 00:00:00.0000, 3.081070343069038E+08, 3.815015721897236E+08, -2.924460840602620E+07,
2460693.500000000, A.D. 2025-Jan-18 00:00:00.0000, 3.006474679380208E+08, 3.881438364284067E+08, -3.079463518870337E+07,
2460700.500000000, A.D. 2025-Jan-25 00:00:00.0000, 2.930651698378607E+08, 3.946280011566459E+08, -3.233208591563891E+07,
2460707.500000000, A.D. 2025-Feb-01 00:00:00.0000, 2.853637260566607E+08, 4.009520943429014E+08, -3.385638647109160E+07,
2460714.500000000, A.D. 2025-Feb-08 00:00:00.0000, 2.775467463399882E+08, 4.071142329019162E+08, -3.536697331755884E+07,
2460721.500000000, A.D. 2025-Feb-15 00:00:00.0000, 2.696178615662120E+08, 4.131126222540826E+08, -3.686329364122529E+07,
$$EOE